[
    {
        "Altitude(m)": 604221.1965631591,
        "Argument of Periapsis(deg)": 0.0,
        "Eccentricity": 0.0,
        "Inclination(deg)": 60.0,
        "Latitude(deg)": 14.117201578332606,
        "Longitude(deg)": -41.665868747962065,
        "Mean Anomaly(deg)": 16.363600000000005,
        "RAAN(deg)": 50.0,
        "Satellite Name": "Test1 221",
        "Satellite Number": 221,
        "Semi-Major Axis(m)": 6980739.136638005,
        "Time(s)": 0
    },
    {
        "Altitude(m)": 604235.3372904523,
        "Argument of Periapsis(deg)": 0.00010418945913296404,
        "Eccentricity": 0.0,
        "Inclination(deg)": 60.0,
        "Latitude(deg)": 14.651598801716204,
        "Longitude(deg)": -41.37742275227366,
        "Mean Anomaly(deg)": 16.98370614546183,
        "RAAN(deg)": 49.99957995086026,
        "Satellite Name": "Test1 221",
        "Satellite Number": 221,
        "Semi-Major Axis(m)": 6980739.136638005,
        "Time(s)": 10
    },
    {
        "Altitude(m)": 604252.3751258018,
        "Argument of Periapsis(deg)": 0.0002083789182659281,
        "Eccentricity": 0.0,
        "Inclination(deg)": 60.0,
        "Latitude(deg)": 15.185506216577501,
        "Longitude(deg)": -41.08737376462486,
        "Mean Anomaly(deg)": 17.60381229092366,
        "RAAN(deg)": 49.99915990172052,
        "Satellite Name": "Test1 221",
        "Satellite Number": 221,
        "Semi-Major Axis(m)": 6980739.136638005,
        "Time(s)": 20
    },
    {
        "Altitude(m)": 604272.278240518,
        "Argument of Periapsis(deg)": 0.00031256837739889213,
        "Eccentricity": 0.0,
        "Inclination(deg)": 60.0,
        "Latitude(deg)": 15.718902518439444,
        "Longitude(deg)": -40.795654273035176,
        "Mean Anomaly(deg)": 18.2239184363855,
        "RAAN(deg)": 49.998739852580776,
        "Satellite Name": "Test1 221",
        "Satellite Number": 221,
        "Semi-Major Axis(m)": 6980739.136638005,
        "Time(s)": 30
    },
    {
        "Altitude(m)": 604295.0135311676,
        "Argument of Periapsis(deg)": 0.0004167578365318562,
        "Eccentricity": 0.0,
        "Inclination(deg)": 60.0,
        "Latitude(deg)": 16.251766067111635,
        "Longitude(deg)": -40.50219524291315,
        "Mean Anomaly(deg)": 18.844024581847314,
        "RAAN(deg)": 49.99831980344103,
        "Satellite Name": "Test1 221",
        "Satellite Number": 221,
        "Semi-Major Axis(m)": 6980739.136638005,
        "Time(s)": 40
    },
    {
        "Altitude(m)": 604320.5466385093,
        "Argument of Periapsis(deg)": 0.0005209472956648203,
        "Eccentricity": 0.0,
        "Inclination(deg)": 60.0,
        "Latitude(deg)": 16.78407487065281,
        "Longitude(deg)": -40.20692708147475,
        "Mean Anomaly(deg)": 19.46413072730915,
        "RAAN(deg)": 49.99789975430129,
        "Satellite Name": "Test1 221",
        "Satellite Number": 221,
        "Semi-Major Axis(m)": 6980739.136638005,
        "Time(s)": 50
    },
    {
        "Altitude(m)": 604348.8419670411,
        "Argument of Periapsis(deg)": 0.0006251367547977843,
        "Eccentricity": 0.0,
        "Inclination(deg)": 60.0,
        "Latitude(deg)": 17.31580656885193,
        "Longitude(deg)": -39.90977908843549,
        "Mean Anomaly(deg)": 20.084236872770976,
        "RAAN(deg)": 49.997479705161545,
        "Satellite Name": "Test1 221",
        "Satellite Number": 221,
        "Semi-Major Axis(m)": 6980739.136638005,
        "Time(s)": 60
    },
    {
        "Altitude(m)": 604379.8627050777,
        "Argument of Periapsis(deg)": 0.0007293262139307483,
        "Eccentricity": 0.0,
        "Inclination(deg)": 60.0,
        "Latitude(deg)": 17.846938416203248,
        "Longitude(deg)": -39.610678905822965,
        "Mean Anomaly(deg)": 20.704343018232816,
        "RAAN(deg)": 49.997059656021804,
        "Satellite Name": "Test1 221",
        "Satellite Number": 221,
        "Semi-Major Axis(m)": 6980739.136638005,
        "Time(s)": 70
    },
    {
        "Altitude(m)": 604413.5708454377,
        "Argument of Periapsis(deg)": 0.0008335156730637124,
        "Eccentricity": 0.0,
        "Inclination(deg)": 60.0,
        "Latitude(deg)": 18.377447264348813,
        "Longitude(deg)": -39.3095534797585,
        "Mean Anomaly(deg)": 21.324449163694645,
        "RAAN(deg)": 49.996639606882056,
        "Satellite Name": "Test1 221",
        "Satellite Number": 221,
        "Semi-Major Axis(m)": 6980739.136638005,
        "Time(s)": 80
    },
    {
        "Altitude(m)": 604449.9272066988,
        "Argument of Periapsis(deg)": 0.0009377051321966765,
        "Eccentricity": 0.0,
        "Inclination(deg)": 60.0,
        "Latitude(deg)": 18.90730954396808,
        "Longitude(deg)": -39.006328508440184,
        "Mean Anomaly(deg)": 21.944555309156474,
        "RAAN(deg)": 49.996219557742315,
        "Satellite Name": "Test1 221",
        "Satellite Number": 221,
        "Semi-Major Axis(m)": 6980739.136638005,
        "Time(s)": 90
    },
    {
        "Altitude(m)": 604488.8914549958,
        "Argument of Periapsis(deg)": 0.0010418945913296407,
        "Eccentricity": 0.0,
        "Inclination(deg)": 60.0,
        "Latitude(deg)": 19.43650124608674,
        "Longitude(deg)": -38.700927889176825,
        "Mean Anomaly(deg)": 22.564661454618314,
        "RAAN(deg)": 49.99579950860257,
        "Satellite Name": "Test1 221",
        "Satellite Number": 221,
        "Semi-Major Axis(m)": 6980739.136638005,
        "Time(s)": 100
    },
    {
        "Altitude(m)": 604530.4221263396,
        "Argument of Periapsis(deg)": 0.0011460840504626045,
        "Eccentricity": 0.0,
        "Inclination(deg)": 60.0,
        "Latitude(deg)": 19.96499790277686,
        "Longitude(deg)": -38.3932746773278,
        "Mean Anomaly(deg)": 23.18476760008014,
        "RAAN(deg)": 49.99537945946283,
        "Satellite Name": "Test1 221",
        "Satellite Number": 221,
        "Semi-Major Axis(m)": 6980739.136638005,
        "Time(s)": 110
    },
    {
        "Altitude(m)": 604574.4766494909,
        "Argument of Periapsis(deg)": 0.0012502735095955685,
        "Eccentricity": 0.0,
        "Inclination(deg)": 60.0,
        "Latitude(deg)": 20.492774567225215,
        "Longitude(deg)": -38.08329053138333,
        "Mean Anomaly(deg)": 23.80487374554197,
        "RAAN(deg)": 49.99495941032309,
        "Satellite Name": "Test1 221",
        "Satellite Number": 221,
        "Semi-Major Axis(m)": 6980739.136638005,
        "Time(s)": 120
    },
    {
        "Altitude(m)": 604621.0113693465,
        "Argument of Periapsis(deg)": 0.0013544629687285324,
        "Eccentricity": 0.0,
        "Inclination(deg)": 60.0,
        "Latitude(deg)": 21.019805793139444,
        "Longitude(deg)": -37.77089515704366,
        "Mean Anomaly(deg)": 24.424979891003794,
        "RAAN(deg)": 49.99453936118335,
        "Satellite Name": "Test1 221",
        "Satellite Number": 221,
        "Semi-Major Axis(m)": 6980739.136638005,
        "Time(s)": 130
    },
    {
        "Altitude(m)": 604669.9815707984,
        "Argument of Periapsis(deg)": 0.0014586524278614966,
        "Eccentricity": 0.0,
        "Inclination(deg)": 60.0,
        "Latitude(deg)": 21.54606561346222,
        "Longitude(deg)": -37.4560072631552,
        "Mean Anomaly(deg)": 25.045086036465623,
        "RAAN(deg)": 49.99411931204361,
        "Satellite Name": "Test1 221",
        "Satellite Number": 221,
        "Semi-Major Axis(m)": 6980739.136638005,
        "Time(s)": 140
    },
    {
        "Altitude(m)": 604721.3415031214,
        "Argument of Periapsis(deg)": 0.0015628418869944607,
        "Eccentricity": 0.0,
        "Inclination(deg)": 60.0,
        "Latitude(deg)": 22.071527518366967,
        "Longitude(deg)": -37.138544003748514,
        "Mean Anomaly(deg)": 25.66519218192746,
        "RAAN(deg)": 49.99369926290386,
        "Satellite Name": "Test1 221",
        "Satellite Number": 221,
        "Semi-Major Axis(m)": 6980739.136638005,
        "Time(s)": 150
    },
    {
        "Altitude(m)": 604775.0444048002,
        "Argument of Periapsis(deg)": 0.0016670313461274247,
        "Eccentricity": 0.0,
        "Inclination(deg)": 60.0,
        "Latitude(deg)": 22.596164432503414,
        "Longitude(deg)": -36.818420419043015,
        "Mean Anomaly(deg)": 26.285298327389285,
        "RAAN(deg)": 49.99327921376412,
        "Satellite Name": "Test1 221",
        "Satellite Number": 221,
        "Semi-Major Axis(m)": 6980739.136638005,
        "Time(s)": 160
    },
    {
        "Altitude(m)": 604831.042528843,
        "Argument of Periapsis(deg)": 0.0017712208052603888,
        "Eccentricity": 0.0,
        "Inclination(deg)": 60.0,
        "Latitude(deg)": 23.11994869145927,
        "Longitude(deg)": -36.49555038828695,
        "Mean Anomaly(deg)": 26.905404472851124,
        "RAAN(deg)": 49.99285916462438,
        "Satellite Name": "Test1 221",
        "Satellite Number": 221,
        "Semi-Major Axis(m)": 6980739.136638005,
        "Time(s)": 170
    },
    {
        "Altitude(m)": 604889.287168529,
        "Argument of Periapsis(deg)": 0.001875410264393353,
        "Eccentricity": 0.0,
        "Inclination(deg)": 60.0,
        "Latitude(deg)": 23.642852017410018,
        "Longitude(deg)": -36.169846068688116,
        "Mean Anomaly(deg)": 27.525510618312953,
        "RAAN(deg)": 49.992439115484636,
        "Satellite Name": "Test1 221",
        "Satellite Number": 221,
        "Semi-Major Axis(m)": 6980739.136638005,
        "Time(s)": 180
    },
    {
        "Altitude(m)": 604949.7286836074,
        "Argument of Periapsis(deg)": 0.0019795997235263173,
        "Eccentricity": 0.0,
        "Inclination(deg)": 60.0,
        "Latitude(deg)": 24.164845493922005,
        "Longitude(deg)": -35.84121733331146,
        "Mean Anomaly(deg)": 28.14561676377478,
        "RAAN(deg)": 49.992019066344895,
        "Satellite Name": "Test1 221",
        "Satellite Number": 221,
        "Semi-Major Axis(m)": 6980739.136638005,
        "Time(s)": 190
    }
]